STARLINK-32548          
1 62120U 24222G   26079.26989406  .00011111  00000+0  41262-3 0  9993
2 62120  42.9990  76.7246 0001116 267.3274  92.7450 15.27584050 74373
STARLINK-32525          
1 62121U 24222H   26079.68390659  .00016429  00000+0  60506-3 0  9995
2 62121  43.0035  73.8143 0001666 273.6422  86.4239 15.27587878 74449
STARLINK-32628          
1 62122U 24222J   26079.70189902  .00017939  00000+0  65965-3 0  9997
2 62122  43.0033  73.9485 0001359 274.3385  85.7311 15.27588717 74607
STARLINK-32626          
1 62123U 24222K   26079.00192432  .00021340  00000+0  78247-3 0  9991
2 62123  42.9990  78.1519 0001108 266.3600  93.7125 15.27592047 74328
STARLINK-32608          
1 62124U 24222L   26079.69547456  .00022695  00000+0  83139-3 0  9997
2 62124  43.0004  73.9011 0000902 272.5895  87.4853 15.27592822 74423
STARLINK-32488          
1 62125U 24222M   26079.66606428  .00033196  00000+0  12098-2 0  9993
2 62125  43.0025  74.5375 0002201 275.9046  84.1555 15.27597456 74326
STARLINK-32490          
1 62126U 24222N   26079.68005253  .00015041  00000+0  55464-3 0  9999
2 62126  43.0017  73.7865 0001075 279.3871  80.6859 15.27599774 74430
STARLINK-32557          
1 62127U 24222P   26079.37252896  .00032336  00000+0  11766-2 0  9995
2 62127  42.9985  65.2467 0001533 275.6522  84.4155 15.27658269 74557
STARLINK-32568          
1 62128U 24222Q   26079.25961198  .00007516  00000+0  28234-3 0  9996
2 62128  43.0014  76.6447 0000963 260.6084  99.4659 15.27584409 74100
STARLINK-32462          
1 62129U 24222R   26079.25752728  .00019237  00000+0  70648-3 0  9993
2 62129  42.9991  73.1736 0001424 264.5101  95.5588 15.27592047 74400
STARLINK-32463          
1 62130U 24222S   26079.68776292  .00014297  00000+0  52788-3 0  9990
2 62130  43.0018  73.8427 0001067 276.9467  83.1263 15.27589960 74439
STARLINK-32550          
1 62131U 24222T   26079.26603597  .00012300  00000+0  45564-3 0  9999
2 62131  42.9993  76.6915 0000652 246.2735 113.8048 15.27586796 74414
STARLINK-32507          
1 62132U 24222U   26079.67362560  .00021874  00000+0  80121-3 0  9991
2 62132  43.0000  73.7371 0001473 280.9197  79.1489 15.27614805 74280
STARLINK-32245          
1 62133U 24222V   26079.70960612  .00022039  00000+0  80758-3 0  9998
2 62133  43.0009  74.0020 0001338 265.1476  94.9223 15.27597492 74597
STARLINK-32546          
1 62134U 24222W   26079.39215674  .00016887  00000+0  62106-3 0  9996
2 62134  42.9995  72.4639 0000823 242.9790 117.0978 15.27617155 74311
STARLINK-32545          
1 62135U 24222X   26079.66991806  .00024734  00000+0  90454-3 0  9992
2 62135  43.0012  74.5655 0001897 276.4874  83.5761 15.27607602 74472
STARLINK-32554          
1 62136U 24222Y   26079.69932985  .00021632  00000+0  79289-3 0  9996
2 62136  43.0010  73.9251 0000841 267.5220  92.5535 15.27596860 74483
