[{"OBJECT_NAME":"STARLINK-32548","OBJECT_ID":"2024-222G","EPOCH":"2026-03-20T06:28:38.846784","MEAN_MOTION":15.2758405,"ECCENTRICITY":0.0001116,"INCLINATION":42.999,"RA_OF_ASC_NODE":76.7246,"ARG_OF_PERICENTER":267.3274,"MEAN_ANOMALY":92.745,"EPHEMERIS_TYPE":0,"CLASSIFICATION_TYPE":"U","NORAD_CAT_ID":62120,"ELEMENT_SET_NO":999,"REV_AT_EPOCH":7437,"BSTAR":0.00041262,"MEAN_MOTION_DOT":0.00011111,"MEAN_MOTION_DDOT":0},{"OBJECT_NAME":"STARLINK-32525","OBJECT_ID":"2024-222H","EPOCH":"2026-03-20T16:24:49.529376","MEAN_MOTION":15.27587878,"ECCENTRICITY":0.0001666,"INCLINATION":43.0035,"RA_OF_ASC_NODE":73.8143,"ARG_OF_PERICENTER":273.6422,"MEAN_ANOMALY":86.4239,"EPHEMERIS_TYPE":0,"CLASSIFICATION_TYPE":"U","NORAD_CAT_ID":62121,"ELEMENT_SET_NO":999,"REV_AT_EPOCH":7444,"BSTAR":0.00060506,"MEAN_MOTION_DOT":0.00016429,"MEAN_MOTION_DDOT":0},{"OBJECT_NAME":"STARLINK-32628","OBJECT_ID":"2024-222J","EPOCH":"2026-03-20T16:50:44.075328","MEAN_MOTION":15.27588717,"ECCENTRICITY":0.0001359,"INCLINATION":43.0033,"RA_OF_ASC_NODE":73.9485,"ARG_OF_PERICENTER":274.3385,"MEAN_ANOMALY":85.7311,"EPHEMERIS_TYPE":0,"CLASSIFICATION_TYPE":"U","NORAD_CAT_ID":62122,"ELEMENT_SET_NO":999,"REV_AT_EPOCH":7460,"BSTAR":0.00065965,"MEAN_MOTION_DOT":0.00017939,"MEAN_MOTION_DDOT":0},{"OBJECT_NAME":"STARLINK-32626","OBJECT_ID":"2024-222K","EPOCH":"2026-03-20T00:02:46.261248","MEAN_MOTION":15.27592047,"ECCENTRICITY":0.00011082,"INCLINATION":42.999,"RA_OF_ASC_NODE":78.1519,"ARG_OF_PERICENTER":266.36,"MEAN_ANOMALY":93.7125,"EPHEMERIS_TYPE":0,"CLASSIFICATION_TYPE":"U","NORAD_CAT_ID":62123,"ELEMENT_SET_NO":999,"REV_AT_EPOCH":7432,"BSTAR":0.00078247214,"MEAN_MOTION_DOT":0.0002134,"MEAN_MOTION_DDOT":0},{"OBJECT_NAME":"STARLINK-32608","OBJECT_ID":"2024-222L","EPOCH":"2026-03-20T16:41:29.001984","MEAN_MOTION":15.27592822,"ECCENTRICITY":9.02e-5,"INCLINATION":43.0004,"RA_OF_ASC_NODE":73.9011,"ARG_OF_PERICENTER":272.5895,"MEAN_ANOMALY":87.4853,"EPHEMERIS_TYPE":0,"CLASSIFICATION_TYPE":"U","NORAD_CAT_ID":62124,"ELEMENT_SET_NO":999,"REV_AT_EPOCH":7442,"BSTAR":0.00083139,"MEAN_MOTION_DOT":0.00022695,"MEAN_MOTION_DDOT":0},{"OBJECT_NAME":"STARLINK-32488","OBJECT_ID":"2024-222M","EPOCH":"2026-03-20T15:59:07.953792","MEAN_MOTION":15.27597456,"ECCENTRICITY":0.0002201,"INCLINATION":43.0025,"RA_OF_ASC_NODE":74.5375,"ARG_OF_PERICENTER":275.9046,"MEAN_ANOMALY":84.1555,"EPHEMERIS_TYPE":0,"CLASSIFICATION_TYPE":"U","NORAD_CAT_ID":62125,"ELEMENT_SET_NO":999,"REV_AT_EPOCH":7432,"BSTAR":0.0012098,"MEAN_MOTION_DOT":0.00033196,"MEAN_MOTION_DDOT":0},{"OBJECT_NAME":"STARLINK-32490","OBJECT_ID":"2024-222N","EPOCH":"2026-03-20T16:19:16.538592","MEAN_MOTION":15.27599774,"ECCENTRICITY":0.0001075,"INCLINATION":43.0017,"RA_OF_ASC_NODE":73.7865,"ARG_OF_PERICENTER":279.3871,"MEAN_ANOMALY":80.6859,"EPHEMERIS_TYPE":0,"CLASSIFICATION_TYPE":"U","NORAD_CAT_ID":62126,"ELEMENT_SET_NO":999,"REV_AT_EPOCH":7443,"BSTAR":0.00055464,"MEAN_MOTION_DOT":0.00015041,"MEAN_MOTION_DDOT":0},{"OBJECT_NAME":"STARLINK-32557","OBJECT_ID":"2024-222P","EPOCH":"2026-03-20T08:56:26.502144","MEAN_MOTION":15.27658269,"ECCENTRICITY":0.00015336,"INCLINATION":42.9985,"RA_OF_ASC_NODE":65.2467,"ARG_OF_PERICENTER":275.6522,"MEAN_ANOMALY":84.4155,"EPHEMERIS_TYPE":0,"CLASSIFICATION_TYPE":"U","NORAD_CAT_ID":62127,"ELEMENT_SET_NO":999,"REV_AT_EPOCH":7455,"BSTAR":0.0011766294,"MEAN_MOTION_DOT":0.00032336,"MEAN_MOTION_DDOT":0},{"OBJECT_NAME":"STARLINK-32568","OBJECT_ID":"2024-222Q","EPOCH":"2026-03-20T06:13:50.475072","MEAN_MOTION":15.27584409,"ECCENTRICITY":9.63e-5,"INCLINATION":43.0014,"RA_OF_ASC_NODE":76.6447,"ARG_OF_PERICENTER":260.6084,"MEAN_ANOMALY":99.4659,"EPHEMERIS_TYPE":0,"CLASSIFICATION_TYPE":"U","NORAD_CAT_ID":62128,"ELEMENT_SET_NO":999,"REV_AT_EPOCH":7410,"BSTAR":0.00028234,"MEAN_MOTION_DOT":7.516e-5,"MEAN_MOTION_DDOT":0},{"OBJECT_NAME":"STARLINK-32462","OBJECT_ID":"2024-222R","EPOCH":"2026-03-20T06:10:50.356992","MEAN_MOTION":15.27592047,"ECCENTRICITY":0.0001424,"INCLINATION":42.9991,"RA_OF_ASC_NODE":73.1736,"ARG_OF_PERICENTER":264.5101,"MEAN_ANOMALY":95.5588,"EPHEMERIS_TYPE":0,"CLASSIFICATION_TYPE":"U","NORAD_CAT_ID":62129,"ELEMENT_SET_NO":999,"REV_AT_EPOCH":7440,"BSTAR":0.00070648,"MEAN_MOTION_DOT":0.00019237,"MEAN_MOTION_DDOT":0},{"OBJECT_NAME":"STARLINK-32463","OBJECT_ID":"2024-222S","EPOCH":"2026-03-20T16:30:22.716288","MEAN_MOTION":15.2758996,"ECCENTRICITY":0.0001067,"INCLINATION":43.0018,"RA_OF_ASC_NODE":73.8427,"ARG_OF_PERICENTER":276.9467,"MEAN_ANOMALY":83.1263,"EPHEMERIS_TYPE":0,"CLASSIFICATION_TYPE":"U","NORAD_CAT_ID":62130,"ELEMENT_SET_NO":999,"REV_AT_EPOCH":7443,"BSTAR":0.00052788,"MEAN_MOTION_DOT":0.00014297,"MEAN_MOTION_DDOT":0},{"OBJECT_NAME":"STARLINK-32550","OBJECT_ID":"2024-222T","EPOCH":"2026-03-20T06:23:05.507808","MEAN_MOTION":15.27586796,"ECCENTRICITY":6.52e-5,"INCLINATION":42.9993,"RA_OF_ASC_NODE":76.6915,"ARG_OF_PERICENTER":246.2735,"MEAN_ANOMALY":113.8048,"EPHEMERIS_TYPE":0,"CLASSIFICATION_TYPE":"U","NORAD_CAT_ID":62131,"ELEMENT_SET_NO":999,"REV_AT_EPOCH":7441,"BSTAR":0.00045564,"MEAN_MOTION_DOT":0.000123,"MEAN_MOTION_DDOT":0},{"OBJECT_NAME":"STARLINK-32507","OBJECT_ID":"2024-222U","EPOCH":"2026-03-20T16:10:01.251840","MEAN_MOTION":15.27614805,"ECCENTRICITY":0.0001473,"INCLINATION":43,"RA_OF_ASC_NODE":73.7371,"ARG_OF_PERICENTER":280.9197,"MEAN_ANOMALY":79.1489,"EPHEMERIS_TYPE":0,"CLASSIFICATION_TYPE":"U","NORAD_CAT_ID":62132,"ELEMENT_SET_NO":999,"REV_AT_EPOCH":7428,"BSTAR":0.00080121,"MEAN_MOTION_DOT":0.00021874,"MEAN_MOTION_DDOT":0},{"OBJECT_NAME":"STARLINK-32245","OBJECT_ID":"2024-222V","EPOCH":"2026-03-20T17:01:49.968768","MEAN_MOTION":15.27597492,"ECCENTRICITY":0.0001338,"INCLINATION":43.0009,"RA_OF_ASC_NODE":74.002,"ARG_OF_PERICENTER":265.1476,"MEAN_ANOMALY":94.9223,"EPHEMERIS_TYPE":0,"CLASSIFICATION_TYPE":"U","NORAD_CAT_ID":62133,"ELEMENT_SET_NO":999,"REV_AT_EPOCH":7459,"BSTAR":0.00080758,"MEAN_MOTION_DOT":0.00022039,"MEAN_MOTION_DDOT":0},{"OBJECT_NAME":"STARLINK-32546","OBJECT_ID":"2024-222W","EPOCH":"2026-03-20T09:24:42.342336","MEAN_MOTION":15.27617155,"ECCENTRICITY":8.235e-5,"INCLINATION":42.9995,"RA_OF_ASC_NODE":72.4639,"ARG_OF_PERICENTER":242.979,"MEAN_ANOMALY":117.0978,"EPHEMERIS_TYPE":0,"CLASSIFICATION_TYPE":"U","NORAD_CAT_ID":62134,"ELEMENT_SET_NO":999,"REV_AT_EPOCH":7431,"BSTAR":0.00062105647,"MEAN_MOTION_DOT":0.00016887,"MEAN_MOTION_DDOT":0},{"OBJECT_NAME":"STARLINK-32545","OBJECT_ID":"2024-222X","EPOCH":"2026-03-20T16:04:40.920384","MEAN_MOTION":15.27607602,"ECCENTRICITY":0.0001897,"INCLINATION":43.0012,"RA_OF_ASC_NODE":74.5655,"ARG_OF_PERICENTER":276.4874,"MEAN_ANOMALY":83.5761,"EPHEMERIS_TYPE":0,"CLASSIFICATION_TYPE":"U","NORAD_CAT_ID":62135,"ELEMENT_SET_NO":999,"REV_AT_EPOCH":7447,"BSTAR":0.00090454,"MEAN_MOTION_DOT":0.00024734,"MEAN_MOTION_DDOT":0},{"OBJECT_NAME":"STARLINK-32554","OBJECT_ID":"2024-222Y","EPOCH":"2026-03-20T16:47:02.099040","MEAN_MOTION":15.2759686,"ECCENTRICITY":8.41e-5,"INCLINATION":43.001,"RA_OF_ASC_NODE":73.9251,"ARG_OF_PERICENTER":267.522,"MEAN_ANOMALY":92.5535,"EPHEMERIS_TYPE":0,"CLASSIFICATION_TYPE":"U","NORAD_CAT_ID":62136,"ELEMENT_SET_NO":999,"REV_AT_EPOCH":7448,"BSTAR":0.00079289,"MEAN_MOTION_DOT":0.00021632,"MEAN_MOTION_DDOT":0}]
